{
  "tags": [
    "foo",
    "bar",
    "baz"
  ],
  "author": {
    "phones": [
      44
    ],
    "name": "Theodore",
    "address": {
      "street": "Freshour Circle",
      "zip": 3329
    }
  },
  "comments": [
    {
      "body": "I like this post!",
      "favorite_by": [
        {
          "phones": [],
          "name": "Fausto",
          "address": {
            "street": "Freshour Circle",
            "zip": 3329
          }
        },
        {
          "phones": [
            12,
            21,
            22
          ],
          "name": "Cara",
          "address": {
            "street": "Park Boulevard",
            "zip": 4591
          }
        }
      ],
      "created": "2017-05-31T00:00:00Z",
      "author": {
        "phones": [],
        "name": "Julieta",
        "address": {
          "street": "Edsel Road",
          "zip": 938
        }
      }
    },
    {
      "body": "It could be better...",
      "favorite_by": [],
      "created": "2017-05-31T11:11:11Z",
      "author": {
        "phones": [
          12,
          21,
          22
        ],
        "name": "Cara",
        "address": {
          "street": "Park Boulevard",
          "zip": 4591
        }
      }
    },
    {
      "body": "What can I add more?",
      "favorite_by": [
        {
          "phones": [
            23233,
            6566
          ],
          "name": "Shannon",
          "address": {
            "street": "Red Hawk Road",
            "zip": 3015
          }
        },
        {
          "phones": [],
          "name": "Harold Jones",
          "address": {
            "street": "Still Pastures Drive",
            "zip": 4030
          }
        }
      ],
      "created": "2017-05-31T12:34:56Z",
      "author": {
        "phones": [],
        "name": "Timothy S Manning",
        "address": {
          "street": "Park Boulevard",
          "zip": 4591
        }
      }
    }
  ],
  "title": "The Wiz"
}